[{"OBJECT_NAME":"STARLINK-34490","OBJECT_ID":"2025-133G","EPOCH":"2026-03-09T10:44:27.647808","MEAN_MOTION":15.30280782,"ECCENTRICITY":0.00015318,"INCLINATION":53.1602,"RA_OF_ASC_NODE":117.7617,"ARG_OF_PERICENTER":84.3428,"MEAN_ANOMALY":275.7747,"EPHEMERIS_TYPE":0,"CLASSIFICATION_TYPE":"U","NORAD_CAT_ID":64478,"ELEMENT_SET_NO":999,"REV_AT_EPOCH":4115,"BSTAR":0.0022966574,"MEAN_MOTION_DOT":0.00068461,"MEAN_MOTION_DDOT":0},{"OBJECT_NAME":"JIELONG-3 R\/B","OBJECT_ID":"2026-027H","EPOCH":"2026-03-09T22:52:28.951104","MEAN_MOTION":15.76303399,"ECCENTRICITY":0.02123753,"INCLINATION":97.5118,"RA_OF_ASC_NODE":200.0017,"ARG_OF_PERICENTER":243.897,"MEAN_ANOMALY":114.0305,"EPHEMERIS_TYPE":0,"CLASSIFICATION_TYPE":"U","NORAD_CAT_ID":67753,"ELEMENT_SET_NO":999,"REV_AT_EPOCH":402,"BSTAR":0.00072450109,"MEAN_MOTION_DOT":0.00557901,"MEAN_MOTION_DDOT":2.368277e-6}]
